
# Worst residual: 151.52 km
# MJD 60585.000000 (2024 Oct  2  0:00)
ZTs0318 = A11cz8b
1 79908U 24999ZYY 24276.49919926  .00000000  00000-0  00000-0 0 24735
2 79908 024.6034 322.0887 7502560 239.8174 082.7251 00.88950064    08

# Worst residual: 117.87 km
# MJD 60586.000000 (2024 Oct  3  0:00)
ZTs0318 = A11cz8b
1 79908U 24999ZYY 24277.49919926  .00000000  00000-0  00000-0 0 24736
2 79908 024.5207 321.6635 7518307 240.7203 041.9547 00.89135608    00

# Worst residual: 113.99 km
# MJD 60587.000000 (2024 Oct  4  0:00)
ZTs0318 = A11cz8b
1 79908U 24999ZYY 24278.49919926  .00000000  00000-0  00000-0 0 24737
2 79908 024.4275 321.1953 7534509 241.6988 000.9949 00.89220828    04

# Worst residual: 158.25 km
# MJD 60588.000000 (2024 Oct  5  0:00)
ZTs0318 = A11cz8b
1 79908U 24999ZYY 24279.49919926  .00000000  00000-0  00000-0 0 24738
2 79908 024.3368 320.7862 7553269 242.6066 320.0620 00.89100961    09

# Worst residual: 159.98 km
# MJD 60589.000000 (2024 Oct  6  0:00)
ZTs0318 = A11cz8b
1 79908U 24999ZYY 24280.49919926  .00000000  00000-0  00000-0 0 24730
2 79908 024.2549 320.3914 7565642 243.4532 279.2797 00.88939330    07

# Worst residual: 64.85 km
# MJD 60590.000000 (2024 Oct  7  0:00)
ZTs0318 = A11cz8b
1 79908U 24999ZYY 24281.49919926  .00000000  00000-0  00000-0 0 24731
2 79908 024.1913 320.0650 7569450 244.2259 238.6094 00.88771981    06

# Worst residual: 63.29 km
# MJD 60591.000000 (2024 Oct  8  0:00)
ZTs0318 = A11cz8b
1 79908U 24999ZYY 24282.49919926  .00000000  00000-0  00000-0 0 24732
2 79908 024.1110 319.6253 7578226 245.2036 197.8421 00.88699774    02

# Worst residual: 59.77 km
# MJD 60592.000000 (2024 Oct  9  0:00)
ZTs0318 = A11cz8b
1 79908U 24999ZYY 24283.49919926  .00000000  00000-0  00000-0 0 24733
2 79908 024.0398 319.1840 7590463 246.1830 157.1288 00.88708941    02

# Worst residual: 135.86 km
# MJD 60593.000000 (2024 Oct 10  0:00)
ZTs0318 = A11cz8b
1 79908U 24999ZYY 24284.49919926  .00000000  00000-0  00000-0 0 24734
2 79908 023.9901 318.8071 7611221 247.0525 116.4676 00.88829242    06

# Worst residual: 143.16 km
# MJD 60594.000000 (2024 Oct 11  0:00)
ZTs0318 = A11cz8b
1 79908U 24999ZYY 24285.49919926  .00000000  00000-0  00000-0 0 24735
2 79908 023.9374 318.3865 7625981 247.9343 075.7792 00.89000648    09

# Worst residual: 100.99 km
# MJD 60595.000000 (2024 Oct 12  0:00)
ZTs0318 = A11cz8b
1 79908U 24999ZYY 24286.49919926  .00000000  00000-0  00000-0 0 24736
2 79908 023.8756 317.9224 7635229 248.8824 034.9328 00.89174491    06

# Worst residual: 135.41 km
# MJD 60596.000000 (2024 Oct 13  0:00)
ZTs0318 = A11cz8b
1 79908U 24999ZYY 24287.49919926  .00000000  00000-0  00000-0 0 24737
2 79908 023.8083 317.4444 7645536 249.8732 353.9321 00.89200076    05

# Worst residual: 165.71 km
# MJD 60597.000000 (2024 Oct 14  0:00)
ZTs0318 = A11cz8b
1 79908U 24999ZYY 24288.49919926  .00000000  00000-0  00000-0 0 24738
2 79908 023.7436 316.9674 7657202 250.8308 313.0060 00.89051906    02

# Worst residual: 167.63 km
# MJD 60598.000000 (2024 Oct 15  0:00)
ZTs0318 = A11cz8b
1 79908U 24999ZYY 24289.49919926  .00000000  00000-0  00000-0 0 24739
2 79908 023.6784 316.5709 7665065 251.6828 272.2070 00.88888957    04

# Worst residual: 61.20 km
# MJD 60599.000000 (2024 Oct 16  0:00)
ZTs0318 = A11cz8b
1 79908U 24999ZYY 24290.49919926  .00000000  00000-0  00000-0 0 24731
2 79908 023.6247 316.1802 7663759 252.5496 231.4664 00.88732084    02

# Worst residual: 61.25 km
# MJD 60600.000000 (2024 Oct 17  0:00)
ZTs0318 = A11cz8b
1 79908U 24999ZYY 24291.49919926  .00000000  00000-0  00000-0 0 24732
2 79908 023.5753 315.7461 7670082 253.5322 190.6766 00.88678067    04

# Worst residual: 71.03 km
# MJD 60601.000000 (2024 Oct 18  0:00)
ZTs0318 = A11cz8b
1 79908U 24999ZYY 24292.49919926  .00000000  00000-0  00000-0 0 24733
2 79908 023.5340 315.2963 7681133 254.5260 149.9134 00.88734257    09

# Worst residual: 130.39 km
# MJD 60602.000000 (2024 Oct 19  0:00)
ZTs0318 = A11cz8b
1 79908U 24999ZYY 24293.49919926  .00000000  00000-0  00000-0 0 24734
2 79908 023.5072 314.9267 7695969 255.3749 109.2246 00.88882825    05

# Worst residual: 131.16 km
# MJD 60603.000000 (2024 Oct 20  0:00)
ZTs0318 = A11cz8b
1 79908U 24999ZYY 24294.49919926  .00000000  00000-0  00000-0 0 24735
2 79908 023.4662 314.4231 7702883 256.3542 068.4381 00.89044323    01

# Worst residual: 96.10 km
# MJD 60604.000000 (2024 Oct 21  0:00)
ZTs0318 = A11cz8b
1 79908U 24999ZYY 24295.49919926  .00000000  00000-0  00000-0 0 24736
2 79908 023.4329 314.0224 7704933 257.2543 027.5384 00.89211346    08

# Worst residual: 144.52 km
# MJD 60605.000000 (2024 Oct 22  0:00)
ZTs0318 = A11cz8b
1 79908U 24999ZYY 24296.49919926  .00000000  00000-0  00000-0 0 24737
2 79908 023.3942 313.5333 7711111 258.2630 346.4920 00.89152658    06

# Worst residual: 155.58 km
# MJD 60606.000000 (2024 Oct 23  0:00)
ZTs0318 = A11cz8b
1 79908U 24999ZYY 24297.49919926  .00000000  00000-0  00000-0 0 24738
2 79908 023.3595 313.1637 7717053 259.1200 305.5748 00.88996792    05

# Worst residual: 159.55 km
# MJD 60607.000000 (2024 Oct 24  0:00)
ZTs0318 = A11cz8b
1 79908U 24999ZYY 24298.49919926  .00000000  00000-0  00000-0 0 24739
2 79908 023.3242 312.7606 7716110 259.9829 264.7856 00.88850772    06

# Worst residual: 50.76 km
# MJD 60608.000000 (2024 Oct 25  0:00)
ZTs0318 = A11cz8b
1 79908U 24999ZYY 24299.49919926  .00000000  00000-0  00000-0 0 24730
2 79908 023.3002 312.4016 7710049 260.8358 224.0559 00.88703213    01

# Worst residual: 56.69 km
# MJD 60609.000000 (2024 Oct 26  0:00)
ZTs0318 = A11cz8b
1 79908U 24999ZYY 24300.49919926  .00000000  00000-0  00000-0 0 24733
2 79908 023.2764 311.9985 7712624 261.7784 183.3143 00.88691069    09

# Worst residual: 99.23 km
# MJD 60610.000000 (2024 Oct 27  0:00)
ZTs0318 = A11cz8b
1 79908U 24999ZYY 24301.49919926  .00000000  00000-0  00000-0 0 24734
2 79908 023.2600 311.6134 7721686 262.6956 142.5740 00.88775230    03

# Worst residual: 135.40 km
# MJD 60611.000000 (2024 Oct 28  0:00)
ZTs0318 = A11cz8b
1 79908U 24999ZYY 24302.49919926  .00000000  00000-0  00000-0 0 24735
2 79908 023.2531 311.2831 7730861 263.5025 101.8872 00.88919399    08

# Worst residual: 143.15 km
# MJD 60612.000000 (2024 Oct 29  0:00)
ZTs0318 = A11cz8b
1 79908U 24999ZYY 24303.49919926  .00000000  00000-0  00000-0 0 24736
2 79908 023.2442 310.9049 7732550 264.3536 061.1108 00.89100110    03

# Worst residual: 102.36 km
# MJD 60613.000000 (2024 Oct 30  0:00)
ZTs0318 = A11cz8b
1 79908U 24999ZYY 24304.49919926  .00000000  00000-0  00000-0 0 24737
2 79908 023.2326 310.5112 7730797 265.2680 020.1211 00.89213952    01

# Worst residual: 155.84 km
# MJD 60614.000000 (2024 Oct 31  0:00)
ZTs0318 = A11cz8b
1 79908U 24999ZYY 24305.49919926  .00000000  00000-0  00000-0 0 24738
2 79908 023.2191 310.1287 7732368 266.1818 339.0608 00.89133462    08

# Worst residual: 141.49 km
# MJD 60615.000000 (2024 Nov  1  0:00)
ZTs0318 = A11cz8b
1 79908U 24999ZYY 24306.49919926  .00000000  00000-0  00000-0 0 24739
2 79908 023.2054 309.7561 7733068 267.0326 298.1862 00.88940833    01
